[{"OBJECT_NAME":"STARLINK-4618","OBJECT_ID":"2022-107AM","EPOCH":"2026-03-09T19:20:54.533472","MEAN_MOTION":15.08855213,"ECCENTRICITY":0.00010578,"INCLINATION":53.2167,"RA_OF_ASC_NODE":263.4124,"ARG_OF_PERICENTER":70.1068,"MEAN_ANOMALY":290.0038,"EPHEMERIS_TYPE":0,"CLASSIFICATION_TYPE":"U","NORAD_CAT_ID":53735,"ELEMENT_SET_NO":999,"REV_AT_EPOCH":19446,"BSTAR":-0.00022594121,"MEAN_MOTION_DOT":-3.883e-5,"MEAN_MOTION_DDOT":0},{"OBJECT_NAME":"LEMUR-2-AHMED-ASRAR","OBJECT_ID":"2024-149DN","EPOCH":"2026-03-09T17:35:01.338432","MEAN_MOTION":15.10376432,"ECCENTRICITY":0.00016334,"INCLINATION":97.7021,"RA_OF_ASC_NODE":152.9847,"ARG_OF_PERICENTER":18.5035,"MEAN_ANOMALY":341.6253,"EPHEMERIS_TYPE":0,"CLASSIFICATION_TYPE":"U","NORAD_CAT_ID":60576,"ELEMENT_SET_NO":999,"REV_AT_EPOCH":8554,"BSTAR":0.0007977347,"MEAN_MOTION_DOT":0.00013045,"MEAN_MOTION_DDOT":0}]
