STARLINK-4618           
1 53735U 22107AM  26068.80618673 -.00003883  00000+0 -22594-3 0  9994
2 53735  53.2167 263.4124 0001058  70.1068 290.0038 15.08855213194461
LEMUR-2-AHMED-ASRAR     
1 60576U 24149DN  26068.73265438  .00013045  00000+0  79773-3 0  9992
2 60576  97.7021 152.9847 0001633  18.5035 341.6253 15.10376432 85541
